{
  "type": "FeatureCollection",
  "features": [
    {
      "type": "Feature",
      "properties": {
        "norad_id": 36682,
        "name": "FENGYUN 1C DEB",
        "group": "fengyun-1c-debris",
        "lat": 45.9311497967081,
        "lon": 86.17390470147338,
        "alt_km": 1087.2463731899034,
        "timestamp": "2025-12-20T09:36:01.934223+00:00",
        "meta_object_name": "FENGYUN 1C DEB",
        "meta_object_id": "1999-025DZC",
        "meta_epoch": "2025-12-18T04:21:02.838240",
        "meta_mean_motion": 13.70147568,
        "meta_eccentricity": 0.02318787,
        "meta_inclination": 98.4843,
        "meta_ra_of_asc_node": 255.3446,
        "meta_arg_of_pericenter": 263.0113,
        "meta_mean_anomaly": 94.4614,
        "meta_ephemeris_type": 0,
        "meta_classification_type": "U",
        "meta_norad_cat_id": 36682,
        "meta_element_set_no": 999,
        "meta_rev_at_epoch": 61467,
        "meta_bstar": 0.00088117458,
        "meta_mean_motion_dot": 8.99e-06,
        "meta_mean_motion_ddot": 0,
        "tle_line1": "1 36682U 99025DZC 25352.18128285  .00000899  00000+0  88117-3 0  9995",
        "tle_line2": "2 36682  98.4843 255.3446 0231878 263.0113  94.4614 13.70147568614671"
      },
      "geometry": {
        "type": "Point",
        "coordinates": [
          86.17390470147338,
          45.9311497967081
        ]
      }
    },
    {
      "type": "Feature",
      "properties": {
        "norad_id": 36684,
        "name": "FENGYUN 1C DEB",
        "group": "fengyun-1c-debris",
        "lat": -76.53875145839578,
        "lon": -136.0030620300822,
        "alt_km": 595.7722876165153,
        "timestamp": "2025-12-20T09:36:01.934233+00:00",
        "meta_object_name": "FENGYUN 1C DEB",
        "meta_object_id": "1999-025DZE",
        "meta_epoch": "2025-12-18T05:06:39.031200",
        "meta_mean_motion": 14.96945082,
        "meta_eccentricity": 0.00184785,
        "meta_inclination": 99.4565,
        "meta_ra_of_asc_node": 85.489,
        "meta_arg_of_pericenter": 90.6821,
        "meta_mean_anomaly": 269.6512,
        "meta_ephemeris_type": 0,
        "meta_classification_type": "U",
        "meta_norad_cat_id": 36684,
        "meta_element_set_no": 999,
        "meta_rev_at_epoch": 65983,
        "meta_bstar": 0.004262867,
        "meta_mean_motion_dot": 0.00049407,
        "meta_mean_motion_ddot": 0,
        "tle_line1": "1 36684U 99025DZE 25352.21295175  .00049407  00000+0  42629-2 0  9999",
        "tle_line2": "2 36684  99.4565  85.4890 0018478  90.6821 269.6512 14.96945082659835"
      },
      "geometry": {
        "type": "Point",
        "coordinates": [
          -136.0030620300822,
          -76.53875145839578
        ]
      }
    },
    {
      "type": "Feature",
      "properties": {
        "norad_id": 36686,
        "name": "FENGYUN 1C DEB",
        "group": "fengyun-1c-debris",
        "lat": -37.532721376263645,
        "lon": -166.317923495494,
        "alt_km": 615.4080029433562,
        "timestamp": "2025-12-20T09:36:01.934243+00:00",
        "meta_object_name": "FENGYUN 1C DEB",
        "meta_object_id": "1999-025DZG",
        "meta_epoch": "2025-12-18T18:45:25.939872",
        "meta_mean_motion": 14.77277529,
        "meta_eccentricity": 0.01049018,
        "meta_inclination": 99.0004,
        "meta_ra_of_asc_node": 184.8835,
        "meta_arg_of_pericenter": 34.5536,
        "meta_mean_anomaly": 326.243,
        "meta_ephemeris_type": 0,
        "meta_classification_type": "U",
        "meta_norad_cat_id": 36686,
        "meta_element_set_no": 999,
        "meta_rev_at_epoch": 65941,
        "meta_bstar": 0.00053831047,
        "meta_mean_motion_dot": 4.115e-05,
        "meta_mean_motion_ddot": 0,
        "tle_line1": "1 36686U 99025DZG 25352.78155023  .00004115  00000+0  53831-3 0  9995",
        "tle_line2": "2 36686  99.0004 184.8835 0104901  34.5536 326.2430 14.77277529659417"
      },
      "geometry": {
        "type": "Point",
        "coordinates": [
          -166.317923495494,
          -37.532721376263645
        ]
      }
    },
    {
      "type": "Feature",
      "properties": {
        "norad_id": 36687,
        "name": "FENGYUN 1C DEB",
        "group": "fengyun-1c-debris",
        "lat": -77.2593113529656,
        "lon": 123.24893505436779,
        "alt_km": 831.9566320127005,
        "timestamp": "2025-12-20T09:36:01.934253+00:00",
        "meta_object_name": "FENGYUN 1C DEB",
        "meta_object_id": "1999-025DZH",
        "meta_epoch": "2025-12-17T23:51:08.993376",
        "meta_mean_motion": 14.04533718,
        "meta_eccentricity": 0.00903258,
        "meta_inclination": 98.7154,
        "meta_ra_of_asc_node": 78.2194,
        "meta_arg_of_pericenter": 250.4808,
        "meta_mean_anomaly": 108.6587,
        "meta_ephemeris_type": 0,
        "meta_classification_type": "U",
        "meta_norad_cat_id": 36687,
        "meta_element_set_no": 999,
        "meta_rev_at_epoch": 62796,
        "meta_bstar": 6.2205267e-05,
        "meta_mean_motion_dot": 6e-07,
        "meta_mean_motion_ddot": 0,
        "tle_line1": "1 36687U 99025DZH 25351.99385409  .00000060  00000+0  62205-4 0  9992",
        "tle_line2": "2 36687  98.7154  78.2194 0090325 250.4808 108.6587 14.04533718627964"
      },
      "geometry": {
        "type": "Point",
        "coordinates": [
          123.24893505436779,
          -77.2593113529656
        ]
      }
    },
    {
      "type": "Feature",
      "properties": {
        "norad_id": 36689,
        "name": "FENGYUN 1C DEB",
        "group": "fengyun-1c-debris",
        "lat": -32.051539833903185,
        "lon": -107.2445544108757,
        "alt_km": 843.9716387608332,
        "timestamp": "2025-12-20T09:36:01.934265+00:00",
        "meta_object_name": "FENGYUN 1C DEB",
        "meta_object_id": "1999-025DZK",
        "meta_epoch": "2025-11-28T10:04:14.213280",
        "meta_mean_motion": 13.74189275,
        "meta_eccentricity": 0.03131537,
        "meta_inclination": 98.4796,
        "meta_ra_of_asc_node": 227.8431,
        "meta_arg_of_pericenter": 334.7216,
        "meta_mean_anomaly": 23.8887,
        "meta_ephemeris_type": 0,
        "meta_classification_type": "U",
        "meta_norad_cat_id": 36689,
        "meta_element_set_no": 999,
        "meta_rev_at_epoch": 58016,
        "meta_bstar": 0.0027905602,
        "meta_mean_motion_dot": 3.71e-05,
        "meta_mean_motion_ddot": 0,
        "tle_line1": "1 36689U 99025DZK 25332.41960895  .00003710  00000+0  27906-2 0  9990",
        "tle_line2": "2 36689  98.4796 227.8431 0313153 334.7216  23.8887 13.74189275580169"
      },
      "geometry": {
        "type": "Point",
        "coordinates": [
          -107.2445544108757,
          -32.051539833903185
        ]
      }
    },
    {
      "type": "Feature",
      "properties": {
        "norad_id": 36691,
        "name": "FENGYUN 1C DEB",
        "group": "fengyun-1c-debris",
        "lat": -21.139154124928595,
        "lon": -2.446621175364261,
        "alt_km": 926.6118402275697,
        "timestamp": "2025-12-20T09:36:01.934276+00:00",
        "meta_object_name": "FENGYUN 1C DEB",
        "meta_object_id": "1999-025DZM",
        "meta_epoch": "2025-12-08T17:50:07.073952",
        "meta_mean_motion": 14.07105067,
        "meta_eccentricity": 0.01290803,
        "meta_inclination": 98.6374,
        "meta_ra_of_asc_node": 343.0423,
        "meta_arg_of_pericenter": 246.8073,
        "meta_mean_anomaly": 111.9457,
        "meta_ephemeris_type": 0,
        "meta_classification_type": "U",
        "meta_norad_cat_id": 36691,
        "meta_element_set_no": 999,
        "meta_rev_at_epoch": 59553,
        "meta_bstar": 0.0032098608,
        "meta_mean_motion_dot": 5.753e-05,
        "meta_mean_motion_ddot": 0,
        "tle_line1": "1 36691U 99025DZM 25342.74313743  .00005753  00000+0  32099-2 0  9992",
        "tle_line2": "2 36691  98.6374 343.0423 0129080 246.8073 111.9457 14.07105067595539"
      },
      "geometry": {
        "type": "Point",
        "coordinates": [
          -2.446621175364261,
          -21.139154124928595
        ]
      }
    },
    {
      "type": "Feature",
      "properties": {
        "norad_id": 36692,
        "name": "FENGYUN 1C DEB",
        "group": "fengyun-1c-debris",
        "lat": -37.2093637630386,
        "lon": -91.22581473178705,
        "alt_km": 850.7275054136544,
        "timestamp": "2025-12-20T09:36:01.934286+00:00",
        "meta_object_name": "FENGYUN 1C DEB",
        "meta_object_id": "1999-025DZN",
        "meta_epoch": "2025-12-19T13:05:58.719264",
        "meta_mean_motion": 13.93478487,
        "meta_eccentricity": 0.0114701,
        "meta_inclination": 99.9949,
        "meta_ra_of_asc_node": 260.157,
        "meta_arg_of_pericenter": 355.4606,
        "meta_mean_anomaly": 4.5502,
        "meta_ephemeris_type": 0,
        "meta_classification_type": "U",
        "meta_norad_cat_id": 36692,
        "meta_element_set_no": 999,
        "meta_rev_at_epoch": 59900,
        "meta_bstar": 0.000466,
        "meta_mean_motion_dot": 5.93e-06,
        "meta_mean_motion_ddot": 0,
        "tle_line1": "1 36692U 99025DZN 25353.54581851  .00000593  00000+0  46600-3 0  9991",
        "tle_line2": "2 36692  99.9949 260.1570 0114701 355.4606   4.5502 13.93478487599004"
      },
      "geometry": {
        "type": "Point",
        "coordinates": [
          -91.22581473178705,
          -37.2093637630386
        ]
      }
    }
  ]
}